GLOBALSTAR M001 [-]     
1 25162U 98008A   23325.89386939 -.00000042  00000+0  41548-3 0  9992
2 25162  52.0018 201.7828 0002564 102.3337 341.6448 12.38173526172691
GLOBALSTAR M004 [-]     
1 25163U 98008B   23325.40209001 -.00000092  00000+0  65574-4 0  9995
2 25163  52.0015   4.5637 0003356  97.9494 275.2235 12.63342078189163
GLOBALSTAR M002 [-]     
1 25164U 98008C   23325.76198691 -.00000056  00000+0  40135-3 0  9992
2 25164  52.0009 237.9560 0001260 129.4232 230.6699 11.61497555117435
GLOBALSTAR M003 [-]     
1 25165U 98008D   23325.40748455  .00000048  00000+0  14642-2 0  9996
2 25165  51.9788 317.7567 0007693 217.1886 291.2880 12.11954592163642
GLOBALSTAR M014 [-]     
1 25306U 98023A   23325.88223513 -.00000062  00000+0  28753-3 0  9991
2 25306  51.9805 172.9301 0001804  60.8660  38.8201 11.65462221124322
GLOBALSTAR M006 [-]     
1 25307U 98023B   23325.89029531 -.00000071  00000+0  87964-4 0  9997
2 25307  51.9918 203.9568 0003840 140.1154 303.6788 11.58157023150404
GLOBALSTAR M015 [-]     
1 25308U 98023C   23325.84608351 -.00000051  00000+0  51954-3 0  9993
2 25308  51.9825 276.2666 0012333 132.5093 250.1372 11.48858313128182
GLOBALSTAR M008 [-]     
1 25309U 98023D   23325.84453380 -.00000074  00000+0  17012-3 0  9996
2 25309  51.9982  60.2626 0002794  60.7167  96.3235 12.36031951166941
